{
  "norad_id": 59848,
  "name": "STARLINK-31859",
  "history": [
    {
      "epoch": "2026-03-28T21:26:43.727424",
      "apogee_km": 483.5872348847861,
      "perigee_km": 482.4414226128856,
      "latitude_deg": 0.1343272919462308,
      "longitude_deg": -109.41808064002544,
      "semi_major_axis_km": 6861.151328748836,
      "eccentricity": 8.35e-05,
      "inclination_deg": 42.9997,
      "raan_deg": 158.9911,
      "arg_perigee_deg": 293.1876,
      "mean_anomaly_deg": 66.8887,
      "mean_motion_rev_day": 15.27591611
    }
  ]
}